{"type": "FeatureCollection", "features": [ {"type": "Feature", "properties": {"norad_id": 39574, "name": "GPM-CORE", "group": "resource", "lat": -33.61427377712181, "lon": -168.91209617856236, "alt_km": 436.62753150881144, "timestamp": "2025-12-13T18:50:04.085389+00:00", "meta": {"OBJECT_NAME": "GPM-CORE", "OBJECT_ID": "2014-009C", "EPOCH": "2025-12-13T05:00:39.083616", "MEAN_MOTION": 15.44477433, "ECCENTRICITY": 0.00098198, "INCLINATION": 64.9734, "RA_OF_ASC_NODE": 211.1097, "ARG_OF_PERICENTER": 245.299, "MEAN_ANOMALY": 114.7128, "EPHEMERIS_TYPE": 0, "CLASSIFICATION_TYPE": "U", "NORAD_CAT_ID": 39574, "ELEMENT_SET_NO": 999, "REV_AT_EPOCH": 66908, "BSTAR": 0.00026911199, "MEAN_MOTION_DOT": 0.00012324, "MEAN_MOTION_DDOT": 0}, "tle": {"line1": "1 39574U 14009C   25347.20878569  .00012324  00000+0  26911-3 0  9991", "line2": "2 39574  64.9734 211.1097 0009819 245.2990 114.7128 15.44477433669087"}}, "geometry": {"type": "Point", "coordinates": [-168.91209617856236, -33.61427377712181]}}, {"type": "Feature", "properties": {"norad_id": 39634, "name": "SENTINEL-1A", "group": "resource", "lat": -30.15207679132841, "lon": 168.21715742771514, "alt_km": 702.2596380890163, "timestamp": "2025-12-13T18:50:04.085400+00:00", "meta": {"OBJECT_NAME": "SENTINEL-1A", "OBJECT_ID": "2014-016A", "EPOCH": "2025-12-13T06:21:12.206304", "MEAN_MOTION": 14.59201434, "ECCENTRICITY": 0.00012493, "INCLINATION": 98.1807, "RA_OF_ASC_NODE": 352.4982, "ARG_OF_PERICENTER": 83.6671, "MEAN_ANOMALY": 276.4671, "EPHEMERIS_TYPE": 0, "CLASSIFICATION_TYPE": "U", "NORAD_CAT_ID": 39634, "ELEMENT_SET_NO": 999, "REV_AT_EPOCH": 62290, "BSTAR": 9.4860976e-05, "MEAN_MOTION_DOT": 4.01e-06, "MEAN_MOTION_DDOT": 0}, "tle": {"line1": "1 39634U 14016A   25347.26472461  .00000401  00000+0  94861-4 0  9996", "line2": "2 39634  98.1807 352.4982 0001249  83.6671 276.4671 14.59201434622905"}}, "geometry": {"type": "Point", "coordinates": [168.21715742771514, -30.15207679132841]}}, {"type": "Feature", "properties": {"norad_id": 39731, "name": "KAZEOSAT 1", "group": "resource", "lat": 58.40668569957419, "lon": -106.52864905653273, "alt_km": 745.3172704248809, "timestamp": "2025-12-13T18:50:04.085410+00:00", "meta": {"OBJECT_NAME": "KAZEOSAT 1", "OBJECT_ID": "2014-024A", "EPOCH": "2025-12-13T08:17:09.937824", "MEAN_MOTION": 14.42063911, "ECCENTRICITY": 0.00011132, "INCLINATION": 98.3428, "RA_OF_ASC_NODE": 59.2385, "ARG_OF_PERICENTER": 96.1119, "MEAN_ANOMALY": 264.0198, "EPHEMERIS_TYPE": 0, "CLASSIFICATION_TYPE": "U", "NORAD_CAT_ID": 39731, "ELEMENT_SET_NO": 999, "REV_AT_EPOCH": 61177, "BSTAR": 0.00018022483, "MEAN_MOTION_DOT": 5.49e-06, "MEAN_MOTION_DDOT": 0}, "tle": {"line1": "1 39731U 14024A   25347.34525391  .00000549  00000+0  18022-3 0  9990", "line2": "2 39731  98.3428  59.2385 0001113  96.1119 264.0198 14.42063911611777"}}, "geometry": {"type": "Point", "coordinates": [-106.52864905653273, 58.40668569957419]}}, {"type": "Feature", "properties": {"norad_id": 39766, "name": "ALOS-2", "group": "resource", "lat": 34.34485280784107, "lon": -91.9252451713393, "alt_km": 628.1108635524124, "timestamp": "2025-12-13T18:50:04.085421+00:00", "meta": {"OBJECT_NAME": "ALOS-2", "OBJECT_ID": "2014-029A", "EPOCH": "2025-12-12T12:57:47.930112", "MEAN_MOTION": 14.79474197, "ECCENTRICITY": 0.00014, "INCLINATION": 97.9217, "RA_OF_ASC_NODE": 81.3886, "ARG_OF_PERICENTER": 99.6977, "MEAN_ANOMALY": 260.4393, "EPHEMERIS_TYPE": 0, "CLASSIFICATION_TYPE": "U", "NORAD_CAT_ID": 39766, "ELEMENT_SET_NO": 999, "REV_AT_EPOCH": 62398, "BSTAR": 0.00062702076, "MEAN_MOTION_DOT": 4.634e-05, "MEAN_MOTION_DDOT": 0}, "tle": {"line1": "1 39766U 14029A   25346.54013808  .00004634  00000+0  62702-3 0  9992", "line2": "2 39766  97.9217  81.3886 0001400  99.6977 260.4393 14.79474197623982"}}, "geometry": {"type": "Point", "coordinates": [-91.9252451713393, 34.34485280784107]}}, {"type": "Feature", "properties": {"norad_id": 40010, "name": "KAZEOSAT 2", "group": "resource", "lat": 74.60708846608591, "lon": 163.24251893895058, "alt_km": 609.1461729574958, "timestamp": "2025-12-13T18:50:04.085453+00:00", "meta": {"OBJECT_NAME": "KAZEOSAT 2", "OBJECT_ID": "2014-033A", "EPOCH": "2025-12-13T07:10:18.314112", "MEAN_MOTION": 14.85168385, "ECCENTRICITY": 0.0007673, "INCLINATION": 97.5508, "RA_OF_ASC_NODE": 191.5845, "ARG_OF_PERICENTER": 204.6798, "MEAN_ANOMALY": 155.4051, "EPHEMERIS_TYPE": 0, "CLASSIFICATION_TYPE": "U", "NORAD_CAT_ID": 40010, "ELEMENT_SET_NO": 999, "REV_AT_EPOCH": 62136, "BSTAR": 9.5010297e-05, "MEAN_MOTION_DOT": 7.64e-06, "MEAN_MOTION_DDOT": 0}, "tle": {"line1": "1 40010U 14033A   25347.29882308  .00000764  00000+0  95010-4 0  9992", "line2": "2 40010  97.5508 191.5845 0007673 204.6798 155.4051 14.85168385621361"}}, "geometry": {"type": "Point", "coordinates": [163.24251893895058, 74.60708846608591]}}, {"type": "Feature", "properties": {"norad_id": 40011, "name": "HODOYOSHI-4", "group": "resource", "lat": 6.830906779933147, "lon": -2.4737415904759206, "alt_km": 593.0176221378733, "timestamp": "2025-12-13T18:50:04.085465+00:00", "meta": {"OBJECT_NAME": "HODOYOSHI-4", "OBJECT_ID": "2014-033B", "EPOCH": "2025-12-13T06:45:25.705728", "MEAN_MOTION": 14.87484219, "ECCENTRICITY": 0.00232914, "INCLINATION": 97.5416, "RA_OF_ASC_NODE": 176.1387, "ARG_OF_PERICENTER": 198.561, "MEAN_ANOMALY": 161.476, "EPHEMERIS_TYPE": 0, "CLASSIFICATION_TYPE": "U", "NORAD_CAT_ID": 40011, "ELEMENT_SET_NO": 999, "REV_AT_EPOCH": 62116, "BSTAR": 0.00032995258, "MEAN_MOTION_DOT": 2.953e-05, "MEAN_MOTION_DDOT": 0}, "tle": {"line1": "1 40011U 14033B   25347.28154752  .00002953  00000+0  32995-3 0  9991", "line2": "2 40011  97.5416 176.1387 0023291 198.5610 161.4760 14.87484219621169"}}, "geometry": {"type": "Point", "coordinates": [-2.4737415904759206, 6.830906779933147]}}, {"type": "Feature", "properties": {"norad_id": 40013, "name": "DEIMOS-2", "group": "resource", "lat": -9.084336741106444, "lon": -135.22536398948517, "alt_km": 593.0202240774233, "timestamp": "2025-12-13T18:50:04.085476+00:00", "meta": {"OBJECT_NAME": "DEIMOS-2", "OBJECT_ID": "2014-033D", "EPOCH": "2025-12-13T06:00:25.919136", "MEAN_MOTION": 14.9297326, "ECCENTRICITY": 8.008e-05, "INCLINATION": 97.606, "RA_OF_ASC_NODE": 223.0337, "ARG_OF_PERICENTER": 104.4106, "MEAN_ANOMALY": 255.7203, "EPHEMERIS_TYPE": 0, "CLASSIFICATION_TYPE": "U", "NORAD_CAT_ID": 40013, "ELEMENT_SET_NO": 999, "REV_AT_EPOCH": 60997, "BSTAR": 0.00020000571, "MEAN_MOTION_DOT": 2.023e-05, "MEAN_MOTION_DDOT": 0}, "tle": {"line1": "1 40013U 14033D   25347.25029999  .00002023  00000+0  20001-3 0  9997", "line2": "2 40013  97.6060 223.0337 0000800 104.4106 255.7203 14.92973260609970"}}, "geometry": {"type": "Point", "coordinates": [-135.22536398948517, -9.084336741106444]}}, {"type": "Feature", "properties": {"norad_id": 40015, "name": "HODOYOSHI-3", "group": "resource", "lat": 82.18904728626659, "lon": 76.1838382260175, "alt_km": 627.1115616261386, "timestamp": "2025-12-13T18:50:04.085487+00:00", "meta": {"OBJECT_NAME": "HODOYOSHI-3", "OBJECT_ID": "2014-033F", "EPOCH": "2025-12-13T05:29:49.999488", "MEAN_MOTION": 14.84810051, "ECCENTRICITY": 0.00319176, "INCLINATION": 97.6197, "RA_OF_ASC_NODE": 153.0427, "ARG_OF_PERICENTER": 246.2655, "MEAN_ANOMALY": 113.5211, "EPHEMERIS_TYPE": 0, "CLASSIFICATION_TYPE": "U", "NORAD_CAT_ID": 40015, "ELEMENT_SET_NO": 999, "REV_AT_EPOCH": 62002, "BSTAR": 0.00032179399, "MEAN_MOTION_DOT": 2.704e-05, "MEAN_MOTION_DDOT": 0}, "tle": {"line1": "1 40015U 14033F   25347.22905092  .00002704  00000+0  32179-3 0  9998", "line2": "2 40015  97.6197 153.0427 0031917 246.2655 113.5211 14.84810051620020"}}, "geometry": {"type": "Point", "coordinates": [76.1838382260175, 82.18904728626659]}}, {"type": "Feature", "properties": {"norad_id": 40053, "name": "SPOT 7", "group": "resource", "lat": 77.74856030997569, "lon": 8.911779967351087, "alt_km": 682.3946749921179, "timestamp": "2025-12-13T18:50:04.085497+00:00", "meta": {"OBJECT_NAME": "SPOT 7", "OBJECT_ID": "2014-034A", "EPOCH": "2025-12-13T06:57:29.708352", "MEAN_MOTION": 14.60736219, "ECCENTRICITY": 0.00015732, "INCLINATION": 98.0904, "RA_OF_ASC_NODE": 49.3524, "ARG_OF_PERICENTER": 87.7581, "MEAN_ANOMALY": 272.38, "EPHEMERIS_TYPE": 0, "CLASSIFICATION_TYPE": "U", "NORAD_CAT_ID": 40053, "ELEMENT_SET_NO": 999, "REV_AT_EPOCH": 60999, "BSTAR": 0.00025255496, "MEAN_MOTION_DOT": 1.186e-05, "MEAN_MOTION_DDOT": 0}, "tle": {"line1": "1 40053U 14034A   25347.28992718  .00001186  00000+0  25255-3 0  9998", "line2": "2 40053  98.0904  49.3524 0001573  87.7581 272.3800 14.60736219609997"}}, "geometry": {"type": "Point", "coordinates": [8.911779967351087, 77.74856030997569]}}, {"type": "Feature", "properties": {"norad_id": 40072, "name": "SKYSAT-B", "group": "resource", "lat": 63.03050622393114, "lon": 128.34506976112053, "alt_km": 596.4092488073729, "timestamp": "2025-12-13T18:50:04.085508+00:00", "meta": {"OBJECT_NAME": "SKYSAT-B", "OBJECT_ID": "2014-037D", "EPOCH": "2025-12-13T07:00:50.205600", "MEAN_MOTION": 14.87332026, "ECCENTRICITY": 0.00061984, "INCLINATION": 98.3608, "RA_OF_ASC_NODE": 291.0275, "ARG_OF_PERICENTER": 148.4158, "MEAN_ANOMALY": 211.743, "EPHEMERIS_TYPE": 0, "CLASSIFICATION_TYPE": "U", "NORAD_CAT_ID": 40072, "ELEMENT_SET_NO": 999, "REV_AT_EPOCH": 61832, "BSTAR": 0.00031173725, "MEAN_MOTION_DOT": 2.755e-05, "MEAN_MOTION_DDOT": 0}, "tle": {"line1": "1 40072U 14037D   25347.29224775  .00002755  00000+0  31174-3 0  9994", "line2": "2 40072  98.3608 291.0275 0006198 148.4158 211.7430 14.87332026618324"}}, "geometry": {"type": "Point", "coordinates": [128.34506976112053, 63.03050622393114]}}]}